*******************************************************************************
JPL/HORIZONS                1049 Gotho (1925 RB)           2023-Sep-04 11:09:54
Rec #:    1049 (+COV) Soln.date: 2023-Aug-21_12:12:14   # obs: 7584 (1925-2023)
 
IAU76/J2000 helio. ecliptic osc. elements (au, days, deg., period=Julian yrs):
 
  EPOCH=  2457011.5 ! 2014-Dec-20.00 (TDB)         Residual RMS= .22944
   EC= .1338048757207642   QR= 2.683616405479259   TP= 2456372.4247669061
   OM= 342.8664846444176   W=  41.59799958820896   IN= 15.1033310182645
   A= 3.098166140928472    MA= 115.5045270027308   ADIST= 3.512715876377686
   PER= 5.45337            N= .180736979           ANGMOM= .030006188
   DAN= 2.76593            DDN= 3.38101            L= 23.4667927
   B= 9.961490700000001    MOID= 1.70301998        TP= 2013-Mar-20.9247669061
 
Asteroid physical parameters (km, seconds, rotational period in hours):
   GM= n.a.                RAD= 28.148             ROTPER= 8.47
   H= 10.5                 G= .150                 B-V= n.a.
                           ALBEDO= .008            STYP= n.a.

ASTEROID comments: 
1: soln ref.= JPL#81, OCC=0
2: source=ORB
*******************************************************************************


*******************************************************************************
Ephemeris / API_USER Mon Sep  4 11:09:54 2023 Pasadena, USA      / Horizons
*******************************************************************************
Target body name: 1049 Gotho (1925 RB)            {source: JPL#81}
Center body name: Solar System Barycenter (0)     {source: DE441}
Center-site name: BODY CENTER
*******************************************************************************
Start time      : A.D. 2023-Aug-12 00:00:00.0000 TDB
Stop  time      : A.D. 2023-Aug-13 00:00:00.0000 TDB
Step-size       : 2880 minutes
*******************************************************************************
Center geodetic : 0.0, 0.0, 0.0                   {E-lon(deg),Lat(deg),Alt(km)}
Center cylindric: 0.0, 0.0, 0.0                   {E-lon(deg),Dxy(km),Dz(km)}
Center radii    : (undefined)
Small perturbers: Yes                             {source: SB441-N16}
Output units    : KM-S
Calendar mode   : Mixed Julian/Gregorian
Output type     : GEOMETRIC cartesian states
Output format   : 2 (position and velocity)
Reference frame : Ecliptic of J2000.0
*******************************************************************************
Initial IAU76/J2000 heliocentric ecliptic osculating elements (au, days, deg.):
  EPOCH=  2457011.5 ! 2014-Dec-20.00 (TDB)         Residual RMS= .22944        
   EC= .1338048757207642   QR= 2.683616405479259   TP= 2456372.4247669061      
   OM= 342.8664846444176   W=  41.59799958820896   IN= 15.1033310182645        
  Equivalent ICRF heliocentric cartesian coordinates (au, au/d):
   X=-2.956091173219492E+00  Y= 1.314980026846339E+00  Z= 7.353036844806491E-01
  VX=-4.970112949379350E-03 VY=-5.775060322597935E-03 VZ=-4.980857471081781E-03
Asteroid physical parameters (km, seconds, rotational period in hours):        
   GM= n.a.                RAD= 28.148             ROTPER= 8.47                
   H= 10.5                 G= .150                 B-V= n.a.                   
                           ALBEDO= .008            STYP= n.a.                  
*******************************************************************************
JDTDB
   X     Y     Z
   VX    VY    VZ
*******************************************************************************
$$SOE
2460168.500000000 = A.D. 2023-Aug-12 00:00:00.0000 TDB 
 X = 3.905277404131704E+08 Y =-1.256915987324179E+08 Z =-1.115189991265930E+06
 VX= 4.078695185087057E+00 VY= 1.780247524839442E+01 VZ= 4.921556297432542E+00
$$EOE
*******************************************************************************
 
TIME

  Barycentric Dynamical Time ("TDB" or T_eph) output was requested. This
continuous coordinate time is equivalent to the relativistic proper time
of a clock at rest in a reference frame co-moving with the solar system
barycenter but outside the system's gravity well. It is the independent
variable in the solar system relativistic equations of motion.

  TDB runs at a uniform rate of one SI second per second and is independent
of irregularities in Earth's rotation.
 
CALENDAR SYSTEM

  Mixed calendar mode was active such that calendar dates after AD 1582-Oct-15
(if any) are in the modern Gregorian system. Dates prior to 1582-Oct-5 (if any)
are in the Julian calendar system, which is automatically extended for dates
prior to its adoption on 45-Jan-1 BC.  The Julian calendar is useful for
matching historical dates. The Gregorian calendar more accurately corresponds
to the Earth's orbital motion and seasons. A "Gregorian-only" calendar mode is
available if such physical events are the primary interest.

REFERENCE FRAME AND COORDINATES

  Ecliptic at the standard reference epoch

    Reference epoch: J2000.0
    X-Y plane: adopted Earth orbital plane at the reference epoch
               Note: IAU76 obliquity of 84381.448 arcseconds wrt ICRF X-Y plane
    X-axis   : ICRF
    Z-axis   : perpendicular to the X-Y plane in the directional (+ or -) sense
               of Earth's north pole at the reference epoch.

  Symbol meaning:

    JDTDB    Julian Day Number, Barycentric Dynamical Time
      X      X-component of position vector (km)
      Y      Y-component of position vector (km)
      Z      Z-component of position vector (km)
      VX     X-component of velocity vector (km/sec)                           
      VY     Y-component of velocity vector (km/sec)                           
      VZ     Z-component of velocity vector (km/sec)                           

ABERRATIONS AND CORRECTIONS

 Geometric state vectors have NO corrections or aberrations applied.

Computations by ...

    Solar System Dynamics Group, Horizons On-Line Ephemeris System
    4800 Oak Grove Drive, Jet Propulsion Laboratory
    Pasadena, CA  91109   USA

    General site: https://ssd.jpl.nasa.gov/
    Mailing list: https://ssd.jpl.nasa.gov/email_list.html
    System news : https://ssd.jpl.nasa.gov/horizons/news.html
    User Guide  : https://ssd.jpl.nasa.gov/horizons/manual.html
    Connect     : browser        https://ssd.jpl.nasa.gov/horizons/app.html#/x
                  API            https://ssd-api.jpl.nasa.gov/doc/horizons.html
                  command-line   telnet ssd.jpl.nasa.gov 6775
                  e-mail/batch   https://ssd.jpl.nasa.gov/ftp/ssd/hrzn_batch.txt
                  scripts        https://ssd.jpl.nasa.gov/ftp/ssd/SCRIPTS
    Author      : Jon.D.Giorgini@jpl.nasa.gov
*******************************************************************************
